#dP2020  6 19  0  0  0.00000000      97 __u+U IGS14 FIT  IAC
## 2110 432000.00000000   900.00000000 59019 0.0000000000000
+  122   C01C02C03C04C05C06C07C08C09C11C12C13C14C16C19C20C21
+        C22C23C24C25C26C27C28C29C30C32C33C34C35C36C37C38C39
+        C40C43C44C45C46C60E01E02E03E04E05E07E08E09E11E12E13
+        E14E15E18E19E21E24E25E26E27E30E31E33E36G01G02G03G04
+        G05G06G07G08G09G10G11G12G13G14G15G16G17G18G19G20G21
+        G22G24G25G26G27G28G29G30G31G32J01J02J03J07R01R02R03
+        R04R05R07R08R09R11R12R13R14R15R16R17R18R19R20R21R22
+        R23R24R26  0  0  0  0  0  0  0  0  0  0  0  0  0  0
++         0  0  0  0  0  0  0  0  0  0  0  0  0  0  0  0  0
++         0  0  0  0  0  0  0  0  0  0  0  0  0  0  0  0  0
++         0  0  0  0  0  0  0  0  0  0  0  0  0  0  0  0  0
++         0  0  0  0  0  0  0  0  0  0  0  0  0  0  0  0  0
++         0  0  0  0  0  0  0  0  0  0  0  0  0  0  0  0  0
++         0  0  0  0  0  0  0  0  0  0  0  0  0  0  0  0  0
++         0  0  0  0  0  0  0  0  0  0  0  0  0  0  0  0  0
++         0  0  0  0  0  0  0  0  0  0  0  0  0  0  0  0  0
%c M  cc GPS ccc cccc cccc cccc cccc ccccc ccccc ccccc ccccc
%c cc cc ccc ccc cccc cccc cccc cccc ccccc ccccc ccccc ccccc
%f  1.2500000  1.025000000  0.00000000000  0.000000000000000
%f  0.0000000  0.000000000  0.00000000000  0.000000000000000
%i    0    0    0    0      0      0      0      0         0
%i    0    0    0    0      0      0      0      0         0
/* INFORMATION & ANALYSIS CENTER (IAC)            FINAL DATA
/* S/V CLOCKS ARE ALIGNED TO GNSS TIME                      
/* G:C1WC2W R:C1PC2P E:C1XC5X C:C2IC6I J:C1CC2S             
/* PCV:IGS14_2101 OL/AL:FES2004  NONE     YN ORB:CoN CLK:CoN
*  2020 06 19 18 45  0.00000000
PC01 -34388.173444  24422.954024    428.321218   -403.147753
PC02   4445.842974  41924.126295   -255.570532    271.457637
PC03 -14711.958932  39531.432634   -928.652810    855.909514
PC04 -39609.065869  14491.580241   -515.370428 999999.999999
PC05  21950.932928  36007.260563    -41.599196   -485.768790
PC06 -20950.557685  23215.735265  28494.908503    758.285743
PC07 -17583.417808  38258.619893   5573.365093     33.255553
PC08  -5176.453405  25321.205438 -33146.368970   -321.755003
PC09  -2735.248470  24787.647391  34226.888877    621.009724
PC11  21933.688690  -7297.342161  15649.670623   -438.771691
PC12  27483.726914   4517.660855  -1462.816239    405.897973
PC13   7242.909196  33652.738110 -24097.541136    499.292537
PC14  20009.333340 -17764.386910   7845.369684    554.634754
PC16 -18287.584239  23482.798600  29875.490989   -614.238926
PC19 -15836.411504  22956.233535   1315.637261    449.273310
PC20 -20938.642521  10858.893117 -14919.067896   -850.021413
PC21  13692.298469   8278.188452  22885.199995   -548.977156
PC22  -1491.933821  21999.720027  17134.075642   -783.260010
PC23  -7437.290740 -26487.492476  -4640.725404   -851.652038
PC24  16917.623269   -400.659340 -22188.967131   -787.454763
PC25   5919.865160 -19649.432483 -18918.352755   -657.511589
PC26  17693.607832  17323.544394 -12842.934139    724.221483
PC27 -23761.524172 -10430.213521  10219.430641    350.288998
PC28  -6650.799031 -16126.020701  21782.276841   -211.379669
PC29 -13800.649823  12915.502484 -20538.816923    244.689982
PC30 -26929.759811   2137.462260  -6960.945626    334.402199
PC32 -13789.419414  -8115.163558 -22844.325066   -877.905398
PC33  15774.495726 -22972.721698  -1196.107711   -810.605697
PC34  26819.008653  -2368.343988   7378.483280   -826.331921
PC35   7005.005110  15968.335216 -21799.423906   -789.041897
PC36  -6559.971823  19319.894269  19070.851816   -849.427660
PC37 -17132.580125 -18281.496385  12317.765784   -853.805648
PC38  -3353.701698  29077.496482 -30300.310565     84.368283
PC39 -15046.136735  24826.704491  30540.934839     17.873823
PC40 -14791.014422  39357.231899  -4308.501928     53.985263
PC43  14222.476513 -12794.133018  20317.241888   -245.824587
PC44  23996.080314   9828.325398 -10364.074718   -281.558564
PC45   7528.020591  26455.046757   4689.936252    159.770811
PC46 -16659.806649    955.611489  22382.551223    776.730794
PC60      0.000000      0.000000      0.000000 999999.999999
PE01  -8274.791603 -24805.040635  13867.147661   -881.135608
PE02   8328.624564  24743.819741 -13943.426728    141.567673
PE03  10008.552056  14042.816141  24064.094932   -311.627703
PE04 -25011.536207    515.788079 -15812.816227   -549.194895
PE05 -11026.066151  20514.654613  18280.919909   -370.232944
PE07  25472.139849 -14948.562047  -1849.202079   -397.854519
PE08  25046.648435   -909.673190  15745.159288   6161.447504
PE09 -25345.152347  15182.657634   1986.498394   6023.223325
PE11 -18746.415407   5632.862473 -22208.483325   3564.741011
PE12 -26600.500449 -10528.049546  -7562.308957   5747.106656
PE13  18890.221199  -5432.903452  22134.761338    401.715945
PE14 -25763.097605  12138.496590  -9508.581872  -1055.335138
PE15  26645.305810  10299.743136   7769.022178    862.932749
PE18  26886.039258  -1558.084847  -2868.231933  -1156.633049
PE19  -7805.762894 -15098.075017 -24222.110293      7.179452
PE21   3929.814273 -29018.300207  -4300.331698   -605.498200
PE24 -14324.251195  15988.295806  20363.987602   5394.007652
PE25  -4018.282460  28993.296458   4434.578312   -512.395304
PE26   -235.042859 -18301.656244  23262.020760   3054.280828
PE27  14111.448463 -16340.855975 -20245.489271    194.993528
PE30  15915.754676   6394.817775 -24131.215580   3813.101962
PE31 -15962.900542  -5864.736528  24233.269433   -472.930428
PE33 -18744.996613 -19991.891889  11174.681622   -465.904294
PE36    -32.562566  17987.453363 -23509.099530    544.837523
PG01  20936.846001  13440.542701   9539.208351     12.453879
PG02 -11428.119321 -21529.780615  11247.429837   -474.675445
PG03  14154.567462   5219.722934  21797.150375   -214.091812
PG04  25093.626588   1305.921874   8668.881629   -104.529886
PG05  -3788.341058 -22532.132048 -13512.714261    -14.979714
PG06   -431.206586 -18883.137675  18704.232919   -291.187386
PG07  16629.245391  -3106.187245 -20277.595269   -308.250331
PG08  18118.517174   8112.386832 -17758.565586    -38.123366
PG09  25262.415707  -7906.870029  -2341.096402   -239.228674
PG10 -11609.465690  22842.502001  -6413.609337   -376.076277
PG11  22670.161766  12663.342641  -5191.386066   -244.168297
PG12 -13422.963652  -6095.604337  21860.470635    104.150535
PG13  -9962.849243 -13420.110843 -20780.987195     19.702587
PG14  -5934.873330  15665.052743  20922.543507     -4.699819
PG15 -19520.110191  -6894.223412 -17158.002960   -223.148545
PG16   2903.012500  21072.223059 -15834.830140   -172.475394
PG17  15325.495201 -14021.565531  16947.739208    283.283312
PG18 -16293.871649   3279.359108 -20734.509249    224.656864
PG19   7899.838647 -14674.141835  20371.679414   -143.018705
PG20 -14785.316805  14591.417671 -16502.338386    527.478196
PG21  -7421.638090  13447.905021 -20964.241399     13.621487
PG22  12027.140153  13590.747132  19649.306711   -777.091817
PG24 -21861.604972 -13534.495485   7180.673745    -14.545602
PG25 -16184.533741   5386.824700  20052.975541     14.676536
PG26  -4109.203897  25837.262071  -3855.197005    228.390168
PG27   7219.666144  13482.056688 -21892.269014   -324.785992
PG28  12452.020412 -23098.303284  -3996.369394    707.192967
PG29 -26343.609965   3217.156601   1349.371352   -131.601549
PG30   8570.376927 -13642.914558 -21042.906909   -245.098561
PG31   1058.274898  19775.048761  17432.540712    -50.201331
PG32 -13793.991955  15368.247547  16706.121143    302.919556
PJ01 -28004.480067  31444.546925   1436.140666   -284.763700
PJ02 -26193.414887  25011.897856  26484.329671     -0.616589
PJ03 -31863.186818  17847.760166 -16338.583944     -4.292372
PJ07 -25405.177224  33659.816775     27.490468 999999.999999
PR01  12098.104767   3299.540516  22216.628936     63.313204
PR02  20282.243547 -13169.410383   8245.344844    432.381762
PR03  14261.450056 -19048.804884  -9204.607640     17.064136
PR04    292.501783 -13897.611274 -21356.105796     53.331523
PR05 -13813.107415   -991.510029 -21400.980286     52.608232
PR07 -13792.136520  19034.460005   9899.359323    -37.714779
PR08   -168.686227  13977.325646  21392.112535    -52.960292
PR09  -8522.408338  10392.268521  21710.346103    138.940845
PR11   7528.497266  24049.088219  -4116.315939    -27.674295
PR12  11879.747205  12994.520318 -18422.753064    140.404349
PR13   9702.257142  -6053.577002 -22815.048266    -40.208891
PR14   1835.623569 -21509.908995 -13559.957224     52.457358
PR15  -7022.915842 -24296.976877   3325.147175    106.893270
PR16 -12331.844533 -12263.173969  18690.309071     -4.265564
PR17   6842.793224  -8796.340779  22943.718952    334.438460
PR18 -10932.684467 -12649.324688  19250.828028     39.409805
PR19 -22530.883966 -10534.135612   5661.674336    -98.673202
PR20 -21521.664871  -1121.381264 -13609.484406   -414.682537
PR21  -5896.438461   9069.359067 -23107.810317   -132.507372
PR22  13351.106275  12726.427043 -17681.202773  39383.935087
PR23  24387.451307   7363.204843   1322.192764    313.242278
PR24  21267.876138    287.581657  14082.768752      3.256520
PR26 -23550.959864  -3326.147759  -9245.972953   -392.421474
EOF
